{
  "norad_id": 57761,
  "name": "WILDFIRE 7",
  "history": [
    {
      "epoch": "2026-03-28T23:00:05.683104Z",
      "apogee_km": 949.0394474419772,
      "perigee_km": 942.7672857528305,
      "latitude_deg": -5.77049556020958e-05,
      "longitude_deg": -86.45716591430045,
      "height_km": 950.0038477803496,
      "semi_major_axis_km": 7324.040366597404,
      "eccentricity": 0.00042819,
      "inclination_deg": 80.9951,
      "raan_deg": 84.9379,
      "arg_perigee_deg": 246.7379,
      "mean_anomaly_deg": 113.3326,
      "mean_motion_rev_day": 13.85085772
    },
    {
      "epoch": "2026-03-29T02:28:08.190048Z",
      "apogee_km": 949.0408902694917,
      "perigee_km": 942.76565256494,
      "latitude_deg": -3.529041123719389e-06,
      "longitude_deg": -138.74870247774066,
      "height_km": 950.0288953272436,
      "semi_major_axis_km": 7324.040271417215,
      "eccentricity": 0.0004284,
      "inclination_deg": 80.9951,
      "raan_deg": 84.7992,
      "arg_perigee_deg": 246.2491,
      "mean_anomaly_deg": 113.8216,
      "mean_motion_rev_day": 13.85085799
    },
    {
      "epoch": "2026-03-30T01:00:24.480864Z",
      "apogee_km": 949.0479416027038,
      "perigee_km": 942.7565918725759,
      "latitude_deg": 1.3526691290077457e-05,
      "longitude_deg": -118.6436746461007,
      "height_km": 950.179504838532,
      "semi_major_axis_km": 7324.039266737639,
      "eccentricity": 0.0004295,
      "inclination_deg": 80.9953,
      "raan_deg": 83.8977,
      "arg_perigee_deg": 243.2601,
      "mean_anomaly_deg": 116.8116,
      "mean_motion_rev_day": 13.85086084
    },
    {
      "epoch": "2026-03-30T06:12:28.237824Z",
      "apogee_km": 949.0581548228383,
      "perigee_km": 942.7460049822157,
      "latitude_deg": 7.78887693930221e-05,
      "longitude_deg": 162.91898247981018,
      "height_km": 950.2189285116574,
      "semi_major_axis_km": 7324.039079902527,
      "eccentricity": 0.00043092,
      "inclination_deg": 80.9953,
      "raan_deg": 83.6896,
      "arg_perigee_deg": 242.5476,
      "mean_anomaly_deg": 117.5243,
      "mean_motion_rev_day": 13.85086137
    },
    {
      "epoch": "2026-03-30T11:24:31.992192Z",
      "apogee_km": 949.0588980515058,
      "perigee_km": 942.7446977230711,
      "latitude_deg": 1.114380826788253e-05,
      "longitude_deg": 84.48172976727079,
      "height_km": 950.2531359763317,
      "semi_major_axis_km": 7324.038797887289,
      "eccentricity": 0.00043106,
      "inclination_deg": 80.9953,
      "raan_deg": 83.4816,
      "arg_perigee_deg": 241.8495,
      "mean_anomaly_deg": 118.2226,
      "mean_motion_rev_day": 13.85086217
    },
    {
      "epoch": "2026-03-30T16:36:35.747424Z",
      "apogee_km": 949.0568695461079,
      "perigee_km": 942.7463314071656,
      "latitude_deg": -1.1993640541357726e-05,
      "longitude_deg": 6.0444803192688985,
      "height_km": 950.2870338503392,
      "semi_major_axis_km": 7324.038600476637,
      "eccentricity": 0.00043081,
      "inclination_deg": 80.9953,
      "raan_deg": 83.2736,
      "arg_perigee_deg": 241.1267,
      "mean_anomaly_deg": 118.9457,
      "mean_motion_rev_day": 13.85086273
    },
    {
      "epoch": "2026-03-31T16:52:53.257152Z",
      "apogee_km": 949.0775517036118,
      "perigee_km": 942.7232168690052,
      "latitude_deg": 5.186597897239332e-05,
      "longitude_deg": 0.0038381922202168645,
      "height_km": 950.4517238671465,
      "semi_major_axis_km": 7324.037384286308,
      "eccentricity": 0.0004338,
      "inclination_deg": 80.9955,
      "raan_deg": 82.3027,
      "arg_perigee_deg": 237.874,
      "mean_anomaly_deg": 122.1996,
      "mean_motion_rev_day": 13.85086618
    },
    {
      "epoch": "2026-04-01T17:09:10.760832Z",
      "apogee_km": 949.0936528505126,
      "perigee_km": 942.7056280926936,
      "latitude_deg": 2.0844076939810885e-05,
      "longitude_deg": -6.036693668669087,
      "height_km": 950.6083452281612,
      "semi_major_axis_km": 7324.036640471603,
      "eccentricity": 0.0004361,
      "inclination_deg": 80.9957,
      "raan_deg": 81.3319,
      "arg_perigee_deg": 234.6711,
      "mean_anomaly_deg": 125.4038,
      "mean_motion_rev_day": 13.85086829
    },
    {
      "epoch": "2026-04-02T17:25:28.237728Z",
      "apogee_km": 949.1130386516134,
      "perigee_km": 942.6840002726285,
      "latitude_deg": -1.2451999657229138e-05,
      "longitude_deg": -12.07711442124602,
      "height_km": 950.7628372120889,
      "semi_major_axis_km": 7324.035519462121,
      "eccentricity": 0.0004389,
      "inclination_deg": 80.9958,
      "raan_deg": 80.3611,
      "arg_perigee_deg": 231.4633,
      "mean_anomaly_deg": 128.613,
      "mean_motion_rev_day": 13.85087147
    },
    {
      "epoch": "2026-04-02T22:37:31.975680Z",
      "apogee_km": 949.1152699723752,
      "perigee_km": 942.6803729782259,
      "latitude_deg": 3.30189940657312e-05,
      "longitude_deg": -90.51428095608003,
      "height_km": 950.7947861095538,
      "semi_major_axis_km": 7324.0348214753,
      "eccentricity": 0.0004393,
      "inclination_deg": 80.9958,
      "raan_deg": 80.1531,
      "arg_perigee_deg": 230.7575,
      "mean_anomaly_deg": 129.3192,
      "mean_motion_rev_day": 13.85087345
    },
    {
      "epoch": "2026-04-03T15:57:44.449056Z",
      "apogee_km": 949.1261173234889,
      "perigee_km": 942.6677841857136,
      "latitude_deg": 4.877824625503493e-05,
      "longitude_deg": 8.028352117227772,
      "height_km": 950.9006475676205,
      "semi_major_axis_km": 7324.0339507546005,
      "eccentricity": 0.0004409,
      "inclination_deg": 80.996,
      "raan_deg": 79.4597,
      "arg_perigee_deg": 228.4415,
      "mean_anomaly_deg": 131.6364,
      "mean_motion_rev_day": 13.85087592
    },
    {
      "epoch": "2026-04-04T11:01:58.168128Z",
      "apogee_km": 949.1320237031414,
      "perigee_km": 942.6609471574257,
      "latitude_deg": 2.757951536305642e-05,
      "longitude_deg": 80.42528883146261,
      "height_km": 951.0139459501587,
      "semi_major_axis_km": 7324.033485430284,
      "eccentricity": 0.00044177,
      "inclination_deg": 80.9961,
      "raan_deg": 78.697,
      "arg_perigee_deg": 225.7915,
      "mean_anomaly_deg": 134.2879,
      "mean_motion_rev_day": 13.85087724
    },
    {
      "epoch": "2026-04-05T11:18:15.611328Z",
      "apogee_km": 949.1586812020505,
      "perigee_km": 942.6326751244997,
      "latitude_deg": 3.304981855808462e-05,
      "longitude_deg": 74.38501275821582,
      "height_km": 951.1565301238629,
      "semi_major_axis_km": 7324.032678163275,
      "eccentricity": 0.00044552,
      "inclination_deg": 80.9963,
      "raan_deg": 77.7262,
      "arg_perigee_deg": 222.6604,
      "mean_anomaly_deg": 137.4207,
      "mean_motion_rev_day": 13.85087953
    },
    {
      "epoch": "2026-04-05T23:26:24.326016Z",
      "apogee_km": 949.1643255366134,
      "perigee_km": 942.626015537332,
      "latitude_deg": 5.827353133199829e-05,
      "longitude_deg": -108.63509308185265,
      "height_km": 951.2255082527369,
      "semi_major_axis_km": 7324.032170536972,
      "eccentricity": 0.00044636,
      "inclination_deg": 80.9963,
      "raan_deg": 77.2408,
      "arg_perigee_deg": 220.9501,
      "mean_anomaly_deg": 139.1321,
      "mean_motion_rev_day": 13.85088097
    },
    {
      "epoch": "2026-04-07T10:06:49.204512Z",
      "apogee_km": 949.2022633355891,
      "perigee_km": 942.5854409025496,
      "latitude_deg": -2.0168574688590357e-05,
      "longitude_deg": 88.45053717234018,
      "height_km": 951.4115556391242,
      "semi_major_axis_km": 7324.030852119069,
      "eccentricity": 0.00045172,
      "inclination_deg": 80.9965,
      "raan_deg": 75.8541,
      "arg_perigee_deg": 216.5813,
      "mean_anomaly_deg": 143.5035,
      "mean_motion_rev_day": 13.85088471
    },
    {
      "epoch": "2026-04-07T15:18:52.933824Z",
      "apogee_km": 949.2033700547236,
      "perigee_km": 942.5839111617415,
      "latitude_deg": -1.8118966319492124e-05,
      "longitude_deg": 10.01339910469187,
      "height_km": 951.4362256080232,
      "semi_major_axis_km": 7324.030640608232,
      "eccentricity": 0.0004519,
      "inclination_deg": 80.9966,
      "raan_deg": 75.6461,
      "arg_perigee_deg": 215.8824,
      "mean_anomaly_deg": 144.2029,
      "mean_motion_rev_day": 13.85088531
    },
    {
      "epoch": "2026-04-08T10:23:06.600192Z",
      "apogee_km": 949.2263115586056,
      "perigee_km": 942.5596864922927,
      "latitude_deg": -1.0360940963622222e-05,
      "longitude_deg": 82.41045864938035,
      "height_km": 951.5344066337423,
      "semi_major_axis_km": 7324.029999025449,
      "eccentricity": 0.00045512,
      "inclination_deg": 80.9966,
      "raan_deg": 74.8833,
      "arg_perigee_deg": 213.4698,
      "mean_anomaly_deg": 146.6171,
      "mean_motion_rev_day": 13.85088713
    },
    {
      "epoch": "2026-04-09T21:03:31.440672Z",
      "apogee_km": 949.2585718609862,
      "perigee_km": 942.5248598596245,
      "latitude_deg": -8.80513010776564e-07,
      "longitude_deg": -80.50373894941639,
      "height_km": 951.6991834049782,
      "semi_major_axis_km": 7324.028715860305,
      "eccentricity": 0.0004597,
      "inclination_deg": 80.9967,
      "raan_deg": 73.4966,
      "arg_perigee_deg": 208.9226,
      "mean_anomaly_deg": 151.1676,
      "mean_motion_rev_day": 13.85089077
    },
    {
      "epoch": "2026-04-10T00:31:33.922560Z",
      "apogee_km": 949.2637464112304,
      "perigee_km": 942.519487899408,
      "latitude_deg": 7.250606837606391e-05,
      "longitude_deg": -132.79516824543737,
      "height_km": 951.7164510448795,
      "semi_major_axis_km": 7324.028617155319,
      "eccentricity": 0.00046042,
      "inclination_deg": 80.9967,
      "raan_deg": 73.3579,
      "arg_perigee_deg": 208.4701,
      "mean_anomaly_deg": 151.6205,
      "mean_motion_rev_day": 13.85089105
    },
    {
      "epoch": "2026-04-11T21:36:06.176736Z",
      "apogee_km": 949.3153560059354,
      "perigee_km": 942.4659253563714,
      "latitude_deg": -2.743087403070757e-05,
      "longitude_deg": -92.583370318367,
      "height_km": 951.910762723423,
      "semi_major_axis_km": 7324.027640681154,
      "eccentricity": 0.0004676,
      "inclination_deg": 80.9971,
      "raan_deg": 71.5553,
      "arg_perigee_deg": 202.6746,
      "mean_anomaly_deg": 157.4204,
      "mean_motion_rev_day": 13.85089382
    },
    {
      "epoch": "2026-04-13T04:48:28.487808Z",
      "apogee_km": 949.3519421654391,
      "perigee_km": 942.4282463921345,
      "latitude_deg": -9.880478492080366e-06,
      "longitude_deg": 156.79417610759586,
      "height_km": 952.0287163351215,
      "semi_major_axis_km": 7324.0270942787865,
      "eccentricity": 0.00047267,
      "inclination_deg": 80.9974,
      "raan_deg": 70.3074,
      "arg_perigee_deg": 198.7134,
      "mean_anomaly_deg": 161.3849,
      "mean_motion_rev_day": 13.85089537
    }
  ]
}